STARLINK-3922           
1 52584U 22051BA  26068.41292734 -.00000464  00000+0 -11077-4 0  9993
2 52584  53.2167 120.3627 0001409  98.0258 262.0895 15.08838869211548
CHUANGXIN 16A (CX-16A)  
1 53586U 22102A   26068.83297444  .00003128  00000+0  20134-3 0  9993
2 53586  28.9941 256.1289 0005063  43.7318 316.3682 15.05552649194538
